NORAD_CAT_ID,OBJECT_NAME,OBJECT_TYPE,EPOCH,MEAN_MOTION,ECCENTRICITY,INCLINATION,RA_OF_ASC_NODE,ARG_OF_PERICENTER,MEAN_ANOMALY,BSTAR,MEAN_MOTION_DOT,MEAN_MOTION_DDOT,TLE_LINE0,TLE_LINE1,TLE_LINE2,SEMIMAJOR_AXIS,PERIOD,APOGEE,PERIGEE,DECAYED
52694.0,STARLINK-4072,PAYLOAD,2023-01-15 23:34:54,15.08849899,0.0001644,53.2154,260.8679,59.2877,300.8277,0.00040287,6.131e-05,0.0,0 STARLINK-4072,1 52694U 22053AQ  23015.98257439  .00006131  00000-0  40287-3 0  9991,2 52694  53.2154 260.8679 0001644  59.2877 300.8277 15.08849899 37333,6917.85,95.437,540.852,538.578,0.0
52694.0,STARLINK-4072,PAYLOAD,2023-01-16 09:07:13,15.08836076,0.0001836,53.2167,259.084,59.955,300.1624,0.00014839,2.074e-05,0.0,0 STARLINK-4072,1 52694U 22053AQ  23016.38002223  .00002074  00000-0  14839-3 0  9991,2 52694  53.2167 259.0840 0001836  59.9550 300.1624 15.08836076 37393,6917.892,95.438,541.028,538.487,0.0
52694.0,STARLINK-4072,PAYLOAD,2023-01-17 01:01:06,15.08829596,0.0001971,53.2167,256.1105,66.3846,293.7353,1.067e-06,-2.71e-06,0.0,0 STARLINK-4072,1 52694U 22053AQ  23017.04243140 -.00000271  00000-0  10670-5 0  9999,2 52694  53.2167 256.1105 0001971  66.3846 293.7353 15.08829596 37491,6917.911999999999,95.438,541.141,538.414,0.0
52694.0,STARLINK-4072,PAYLOAD,2023-01-17 08:58:00,15.08846054,0.0001526,53.2154,254.6254,71.7721,288.3437,0.00021466,3.131e-05,0.0,0 STARLINK-4072,1 52694U 22053AQ  23017.37362179  .00003131  00000-0  21466-3 0  9999,2 52694  53.2154 254.6254 0001526  71.7721 288.3437 15.08846054 37540,6917.861999999999,95.437,540.783,538.6709999999999,0.0
52694.0,STARLINK-4072,PAYLOAD,2023-01-17 21:41:04,15.08867758,0.0001373,53.2156,252.2465,81.9935,278.1213,0.00031146,4.676e-05,0.0,0 STARLINK-4072,1 52694U 22053AQ  23017.90352730  .00004676  00000-0  31146-3 0  9991,2 52694  53.2156 252.2465 0001373  81.9935 278.1213 15.08867758 38027,6917.795999999999,95.436,540.61,538.711,0.0
52694.0,STARLINK-4072,PAYLOAD,2023-01-18 02:27:14,15.08883159,0.0001365,53.2149,251.3546,81.4774,278.6373,0.0012408,0.00019538,0.0,0 STARLINK-4072,1 52694U 22053AQ  23018.10224834  .00019538  00000-0  12408-2 0  9999,2 52694  53.2149 251.3546 0001365  81.4774 278.6373 15.08883159 37659,6917.7480000000005,95.435,540.558,538.669,0.0
52694.0,STARLINK-4072,PAYLOAD,2023-01-18 08:48:46,15.08856982,1.99e-05,53.2146,250.1653,211.8039,148.2941,3.494e-05,2.69e-06,0.0,0 STARLINK-4072,1 52694U 22053AQ  23018.36720645  .00000269  00000-0  34940-4 0  9996,2 52694  53.2146 250.1653 0000199 211.8039 148.2941 15.08856982 37690,6917.828,95.436,539.831,539.556,0.0
52694.0,STARLINK-4072,PAYLOAD,2023-01-18 21:31:52,15.08828527,0.0001032999999999,53.2148,247.7865,97.052,263.059,0.0010034,0.00015712,0.0,0 STARLINK-4072,1 52694U 22053AQ  23018.89713812  .00015712  00000-0  10034-2 0  9997,2 52694  53.2148 247.7865 0001033  97.0520 263.0590 15.08828527 37775,6917.915,95.438,540.495,539.066,0.0
52694.0,STARLINK-4072,PAYLOAD,2023-01-19 08:39:35,15.08820713,0.0001302,53.2154,245.7019,101.9016,258.2122,0.0012974,0.00020409,0.0,0 STARLINK-4072,1 52694U 22053AQ  23019.36082897  .00020409  00000-0  12974-2 0  9996,2 52694  53.2154 245.7019 0001302 101.9016 258.2122 15.08820713 37849,6917.939,95.439,540.705,538.904,0.0
52694.0,STARLINK-4072,PAYLOAD,2023-01-19 22:58:04,15.08824774,0.0001199,53.2137,243.0299,83.8287,276.2841,0.0010111,0.00015834,0.0,0 STARLINK-4072,1 52694U 22053AQ  23019.95699792  .00015834  00000-0  10111-2 0  9996,2 52694  53.2137 243.0299 0001199  83.8287 276.2841 15.08824774 37932,6917.927,95.439,540.621,538.962,0.0
52694.0,STARLINK-4072,PAYLOAD,2023-01-21 14:42:42,15.08852061,0.0001026,53.2139,235.5948,77.9669,282.1438,0.00066738,0.00010353,0.0,0 STARLINK-4072,1 52694U 22053AQ  23021.61299428  .00010353  00000-0  66738-3 0  9992,2 52694  53.2139 235.5948 0001026  77.9669 282.1438 15.08852061 38184,6917.844,95.437,540.418,538.999,0.0
52694.0,STARLINK-4072,PAYLOAD,2023-01-22 12:58:05,15.08854638,4.02e-05,53.2143,231.4302,141.1508,218.9513,0.00016862,2.398e-05,0.0,0 STARLINK-4072,1 52694U 22053AQ  23022.54034114  .00002398  00000-0  16862-3 0  9997,2 52694  53.2143 231.4302 0000402 141.1508 218.9513 15.08854638 38320,6917.835999999999,95.437,539.979,539.423,0.0
52694.0,STARLINK-4072,PAYLOAD,2023-01-23 00:05:46,15.08880655,9.28e-05,53.2144,229.3487,92.7125,267.3974,0.0006873,0.0001068,0.0,0 STARLINK-4072,1 52694U 22053AQ  23023.00400891  .00010680  00000-0  68730-3 0  9992,2 52694  53.2144 229.3487 0000928  92.7125 267.3974 15.08880655 38394,6917.755999999999,95.435,540.263,538.979,0.0
52694.0,STARLINK-4072,PAYLOAD,2023-01-23 06:27:19,15.08862045,9.69e-05,53.2147,228.1593,89.18700000000001,270.9233,0.00020524,2.982e-05,0.0,0 STARLINK-4072,1 52694U 22053AQ  23023.26897006  .00002982  00000-0  20524-3 0  9993,2 52694  53.2147 228.1593 0000969  89.1870 270.9233 15.08862045 38430,6917.813,95.436,540.3480000000001,539.008,0.0
52694.0,STARLINK-4072,PAYLOAD,2023-01-23 19:10:24,15.08830258,8.08e-05,53.2141,225.7789,74.8178,285.2904,-0.00052594,-8.646e-05,0.0,0 STARLINK-4072,1 52694U 22053AQ  23023.79889754 -.00008646  00000-0 -52594-3 0  9999,2 52694  53.2141 225.7789 0000808  74.8178 285.2904 15.08830258 38512,6917.91,95.438,540.3340000000001,539.216,0.0
52694.0,STARLINK-4072,PAYLOAD,2023-01-24 20:36:36,15.08829228,8.32e-05,53.2139,221.0223,69.1005,291.0076,0.00045553,6.967e-05,0.0,0 STARLINK-4072,1 52694U 22053AQ  23024.85875153  .00006967  00000-0  45553-3 0  9994,2 52694  53.2139 221.0223 0000832  69.1005 291.0076 15.08829228 38671,6917.9130000000005,95.438,540.354,539.203,0.0
52694.0,STARLINK-4072,PAYLOAD,2023-01-25 12:30:27,15.08838252,9.36e-05,53.2143,218.0491,62.9232,297.1855,0.00051099,7.854e-05,0.0,0 STARLINK-4072,1 52694U 22053AQ  23025.52115483  .00007854  00000-0  51099-3 0  9990,2 52694  53.2143 218.0491 0000936  62.9232 297.1855 15.08838252 39172,6917.886,95.438,540.398,539.1030000000001,0.0
52694.0,STARLINK-4072,PAYLOAD,2023-01-25 17:16:37,15.08842208,9.25e-05,53.2142,217.1567,62.4453,297.6633,0.00054473,8.393e-05,0.0,0 STARLINK-4072,1 52694U 22053AQ  23025.71987444  .00008393  00000-0  54473-3 0  9993,2 52694  53.2142 217.1567 0000925  62.4453 297.6633 15.08842208 39202,6917.874,95.437,540.379,539.099,0.0
52694.0,STARLINK-4072,PAYLOAD,2023-01-26 05:59:42,15.08846262,0.0001,53.2146,214.7783,57.9552,302.1537,0.00043724,6.679e-05,0.0,0 STARLINK-4072,1 52694U 22053AQ  23026.24979373  .00006679  00000-0  43724-3 0  9996,2 52694  53.2146 214.7783 0001000  57.9552 302.1537 15.08846262 38885,6917.861,95.437,540.418,539.034,0.0
52694.0,STARLINK-4072,PAYLOAD,2023-01-26 12:21:14,15.08844877,0.000113,53.2151,213.5894,58.3769,301.7333,0.00031531,4.735e-05,0.0,0 STARLINK-4072,1 52694U 22053AQ  23026.51475432  .00004735  00000-0  31531-3 0  9997,2 52694  53.2151 213.5894 0001130  58.3769 301.7333 15.08844877 39329,6917.865,95.437,540.512,538.9490000000001,0.0
52694.0,STARLINK-4072,PAYLOAD,2023-01-26 18:42:47,15.08844682,0.0001114,53.215,212.3996,59.4334,300.6768,0.00026759,3.974e-05,0.0,0 STARLINK-4072,1 52694U 22053AQ  23026.77971426  .00003974  00000-0  26759-3 0  9999,2 52694  53.2150 212.3996 0001114  59.4334 300.6768 15.08844682 38963,6917.866,95.437,540.502,538.96,0.0
52694.0,STARLINK-4072,PAYLOAD,2023-01-27 12:12:01,15.08841267,0.0001286,53.2153,209.1289,60.331,299.781,8.1443e-05,1.009e-05,0.0,0 STARLINK-4072,1 52694U 22053AQ  23027.50835502  .00001009  00000-0  81443-4 0  9994,2 52694  53.2153 209.1289 0001286  60.3310 299.7810 15.08841267 39075,6917.877,95.437,540.631,538.852,0.0
52694.0,STARLINK-4072,PAYLOAD,2023-01-27 18:33:34,15.08841658,0.0001044,53.2151,207.9384,69.8777,290.2327,7.9749e-05,9.82e-06,0.0,0 STARLINK-4072,1 52694U 22053AQ  23027.77331394  .00000982  00000-0  79749-4 0  9998,2 52694  53.2151 207.9384 0001044  69.8777 290.2327 15.08841658 39510,6917.875,95.437,540.4630000000001,539.018,0.0
52694.0,STARLINK-4072,PAYLOAD,2023-01-28 12:02:48,15.08838999,0.0001029,53.2149,204.6667,73.1971,286.9134,2.8906e-05,1.72e-06,0.0,0 STARLINK-4072,1 52694U 22053AQ  23028.50195498  .00000172  00000-0  28906-4 0  9993,2 52694  53.2149 204.6667 0001029  73.1971 286.9134 15.08838999 39626,6917.883,95.438,540.46,539.037,0.0
52694.0,STARLINK-4072,PAYLOAD,2023-01-28 18:24:21,15.08839985,9.84e-05,53.2156,203.4773,74.8526,285.2575,3.2291e-05,2.26e-06,0.0,0 STARLINK-4072,1 52694U 22053AQ  23028.76691447  .00000226  00000-0  32291-4 0  9998,2 52694  53.2156 203.4773 0000984  74.8526 285.2575 15.08839985 39269,6917.88,95.438,540.426,539.065,0.0
52694.0,STARLINK-4072,PAYLOAD,2023-01-28 19:59:44,15.08839186,9.87e-05,53.2157,203.1803,75.6018,284.5084,4.1891e-05,3.79e-06,0.0,0 STARLINK-4072,1 52694U 22053AQ  23028.83315459  .00000379  00000-0  41891-4 0  9997,2 52694  53.2157 203.1803 0000987  75.6018 284.5084 15.08839186 39674,6917.883,95.438,540.431,539.065,0.0
52694.0,STARLINK-4072,PAYLOAD,2023-01-29 21:25:54,15.08838318,9.85e-05,53.2156,198.4209,70.8278,289.2821,3.9441e-05,3.4e-06,0.0,0 STARLINK-4072,1 52694U 22053AQ  23029.89299676  .00000340  00000-0  39441-4 0  9992,2 52694  53.2156 198.4209 0000985  70.8278 289.2821 15.08838318 39837,6917.886,95.438,540.432,539.069,0.0
52694.0,STARLINK-4072,PAYLOAD,2023-01-30 03:47:27,15.08834089,9.87e-05,53.2154,197.2315,69.705,290.4048,4.0749e-05,3.61e-06,0.0,0 STARLINK-4072,1 52694U 22053AQ  23030.15796038  .00000361  00000-0  40749-4 0  9993,2 52694  53.2154 197.2315 0000987  69.7050 290.4048 15.08834089 39473,6917.898,95.438,540.446,539.081,0.0
52694.0,STARLINK-4072,PAYLOAD,2023-01-30 10:09:00,15.08832514,0.0001008,53.2156,196.0422,73.2387,286.8715,1.8225e-05,2e-08,0.0,0 STARLINK-4072,1 52694U 22053AQ  23030.42292340  .00000002  00000-0  18225-4 0  9996,2 52694  53.2156 196.0422 0001008  73.2387 286.8715 15.08832514 39919,6917.903,95.438,540.466,539.071,0.0
